DMSP 5D-3 F16 (USA 172) 
1 28054U 03048A   26147.52060721  .00000029  00000+0  38597-4 0  9993
2 28054  98.9900 171.2114 0006671 196.7635 280.7684 14.14480498166562
METEOSAT-9 (MSG-2)      
1 28912U 05049B   26146.87609273  .00000125  00000+0  00000+0 0  9997
2 28912   9.3158  54.3780 0001569 328.0037 223.1312  1.00275490  6784
DMSP 5D-3 F17 (USA 191) 
1 29522U 06050A   26147.52196098  .00000061  00000+0  54081-4 0  9999
2 29522  98.7380 154.5151 0011219 112.3997 247.8366 14.14989180  9500
FENGYUN 3A              
1 32958U 08026A   26147.46608705  .00000062  00000+0  50153-4 0  9994
2 32958  98.6878  88.6879 0008543 180.5392 179.5777 14.19566190932468
GOES 14                 
1 35491U 09033A   26147.46783406 -.00000194  00000+0  00000+0 0  9998
2 35491   1.6389  83.2806 0002024 348.7993 134.9280  1.00117107  6381
DMSP 5D-3 F18 (USA 210) 
1 35951U 09057A   26147.42121512  .00000288  00000+0  17206-3 0  9998
2 35951  98.9030 128.2369 0010240 315.0906  44.9438 14.14884080856656
EWS-G2 (GOES 15)        
1 36411U 10008A   26146.59445831  .00000023  00000+0  00000+0 0  9995
2 36411   1.2211  83.2251 0005123  32.2461  46.1346  1.00275127 59423
COMS 1                  
1 36744U 10032A   26146.60723623 -.00000341  00000+0  00000+0 0  9995
2 36744   4.7555  75.6335 0001102 335.4137 179.8626  1.00271120 50874
FENGYUN 3B              
1 37214U 10059A   26147.52129501  .00000082  00000+0  65676-4 0  9990
2 37214  98.9637 193.4469 0021028 244.3989 221.6974 14.14836167804508
SUOMI NPP               
1 37849U 11061A   26147.47663575  .00000060  00000+0  49707-4 0  9999
2 37849  98.7948  88.4952 0002509  48.5104 311.6287 14.19512501755501
METEOSAT-10 (MSG-3)     
1 38552U 12035B   26147.08097860 -.00000002  00000+0  00000+0 0  9993
2 38552   4.6238  61.1184 0001966 329.4704 243.2807  1.00273902 50645
METOP-B                 
1 38771U 12049A   26147.49453343  .00000119  00000+0  74349-4 0  9998
2 38771  98.6517 199.4053 0003238  64.6057 295.5455 14.21426244710327
INSAT-3D                
1 39216U 13038B   26147.46304376 -.00000332  00000+0  00000+0 0  9996
2 39216   1.8745  82.7912 0000919 327.3313 131.1152  1.00273107 46878
FENGYUN 3C              
1 39260U 13052A   26147.54845549  .00000095  00000+0  69216-4 0  9996
2 39260  98.4969 122.3727 0015879  83.2097 277.0884 14.15749542655644
METEOR-M 2              
1 40069U 14037A   26147.52127409 -.00000073  00000+0 -14137-4 0  9995
2 40069  98.5100 123.9929 0007006  94.2063 265.9916 14.21454416616380
HIMAWARI-8              
1 40267U 14060A   26147.46529712 -.00000270  00000+0  00000+0 0  9994
2 40267   0.0124 299.9032 0001205 149.7257 103.5439  1.00270647 42553
FENGYUN 2G              
1 40367U 14090A   26146.67287148 -.00000294  00000+0  00000+0 0  9990
2 40367   5.5872  73.0723 0002784 135.1074  17.5054  1.00259868 41784
METEOSAT-11 (MSG-4)     
1 40732U 15034A   26147.29668141  .00000067  00000+0  00000+0 0  9997
2 40732   3.1498  71.2206 0001650   0.5794 289.1311  1.00273765  7001
ELEKTRO-L 2             
1 41105U 15074A   26147.43594815 -.00000113  00000+0  00000+0 0  9991
2 41105   6.6448  70.7755 0001353 276.3625  40.2959  1.00272058 38291
SENTINEL-3A             
1 41335U 16011A   26147.45811605  .00000117  00000+0  66534-4 0  9991
2 41335  98.6254 215.1384 0001245 108.5354 251.5962 14.26739605535101
INSAT-3DR               
1 41752U 16054A   26147.53953222 -.00000071  00000+0  00000+0 0  9993
2 41752   0.1223  87.3723 0010571 190.5572 235.4128  1.00272724 35617
HIMAWARI-9              
1 41836U 16064A   26147.46529712 -.00000268  00000+0  00000+0 0  9990
2 41836   0.0081 173.0889 0001096 297.2781  82.9384  1.00272295 35001
GOES 16                 
1 41866U 16071A   26147.48801355 -.00000085  00000+0  00000+0 0  9996
2 41866   0.2899  85.7240 0000776 285.6134 304.7355  1.00273024 34890
FENGYUN 4A              
1 41882U 16077A   26147.46191711 -.00000351  00000+0  00000+0 0  9992
2 41882   2.2727  80.5033 0008232 145.6951 308.6346  1.00263608 34722
CYGFM05                 
1 41884U 16078A   26147.07368764  .00024199  00000+0  34063-3 0  9991
2 41884  34.9584  40.2947 0008870 307.2376  52.7539 15.55612196525461
CYGFM04                 
1 41885U 16078B   26146.98024651  .00030592  00000+0  36243-3 0  9991
2 41885  34.9341   9.6412 0007592 344.9445  15.1054 15.60162531525682
CYGFM02                 
1 41886U 16078C   26146.89208941  .00034920  00000+0  37428-3 0  9993
2 41886  34.9421   5.3586 0008705 347.4825  12.5684 15.62712648525833
CYGFM01                 
1 41887U 16078D   26147.07138782  .00024791  00000+0  34073-3 0  9998
2 41887  34.9414  41.5351 0008676 302.0949  57.8933 15.56253719525414
CYGFM08                 
1 41888U 16078E   26147.00204210  .00028948  00000+0  36164-3 0  9993
2 41888  34.9443  22.1167 0009692 330.1495  29.8677 15.58758418525663
CYGFM07                 
1 41890U 16078G   26146.96254233  .00028455  00000+0  35450-3 0  9990
2 41890  34.9463  10.7391 0007976 344.3393  15.7085 15.58853630525688
CYGFM03                 
1 41891U 16078H   26146.99749520  .00029044  00000+0  36182-3 0  9990
2 41891  34.9418  12.4509 0007602 333.0309  27.0020 15.58854625525665
FENGYUN 3D              
1 43010U 17072A   26147.49821358 -.00000005  00000+0  19416-4 0  9995
2 43010  99.0111 121.5481 0002540  96.0200 264.1265 14.19734005442056
NOAA 20 (JPSS-1)        
1 43013U 17073A   26147.48976994  .00000053  00000+0  46078-4 0  9991
2 43013  98.7767  87.1371 0000970  37.7664 322.3580 14.19507379441539
GOES 17                 
1 43226U 18022A   26147.49104691 -.00000176  00000+0  00000+0 0  9997
2 43226   0.8874  86.0060 0000685 347.8676 258.4625  1.00271638 30212
SENTINEL-3B             
1 43437U 18039A   26147.15074374  .00000102  00000+0  60263-4 0  9996
2 43437  98.6252 214.9838 0001150  74.1590 285.9717 14.26734802421129
FENGYUN 2H              
1 43491U 18050A   26147.57467163 -.00000124  00000+0  00000+0 0  9990
2 43491   2.9807  79.3086 0001433 140.4384 311.7078  1.00272067 29235
METOP-C                 
1 43689U 18087A   26147.44449615  .00000119  00000+0  74077-4 0  9990
2 43689  98.6654 207.4260 0000895 149.9927 210.1302 14.21505741391882
GEO-KOMPSAT-2A          
1 43823U 18100A   26147.46287044 -.00000338  00000+0  00000+0 0  9998
2 43823   0.0460 119.9775 0002439 318.6596 101.2745  1.00270597 27423
METEOR-M2 2             
1 44387U 19038A   26147.52201326  .00000234  00000+0  12094-3 0  9995
2 44387  98.9137 134.5036 0002398  80.0762 280.0687 14.24359715358358
ARKTIKA-M 1             
1 47719U 21016A   26144.06756793 -.00000118  00000+0  00000+0 0  9997
2 47719  63.2351  61.1234 7279642 269.8294  14.7586  2.00630669 38301
FENGYUN 3E              
1 49008U 21062A   26147.55486896  .00000353  00000+0  18701-3 0  9993
2 49008  98.7496 151.1933 0002395 121.5078 238.6333 14.19903505253658
GOES 18                 
1 51850U 22021A   26146.98253500  .00000101  00000+0  00000+0 0  9997
2 51850   0.0380 121.6349 0000509 343.4407 356.1762  1.00271998  6381
NOAA 21 (JPSS-2)        
1 54234U 22150A   26147.45294322  .00000060  00000+0  49031-4 0  9995
2 54234  98.7055  86.5910 0000542 232.8611 127.2515 14.19561183183607
METEOSAT-12 (MTG-I1)    
1 54743U 22170C   26147.36608310 -.00000006  00000+0  00000+0 0  9997
2 54743   0.7175  19.5511 0002290  53.3822 303.4448  1.00250715 12766
TIANMU-1 03             
1 55973U 23039A   26147.48045773  .00016893  00000+0  34063-3 0  9999
2 55973  97.5225 320.6506 0003732 152.0949 208.0501 15.46613492177639
TIANMU-1 04             
1 55974U 23039B   26147.47778032  .00017722  00000+0  35021-3 0  9997
2 55974  97.5162 319.8005 0004403 151.2018 208.9475 15.47188184177644
TIANMU-1 05             
1 55975U 23039C   26147.52495337  .00017449  00000+0  35260-3 0  9999
2 55975  97.5204 320.3194 0003135 166.8058 193.3274 15.46545164177621
TIANMU-1 06             
1 55976U 23039D   26147.47993273  .00017349  00000+0  34397-3 0  9995
2 55976  97.5215 320.8877 0003508 165.3787 194.7565 15.47101505177642
FENGYUN 3G              
1 56232U 23055A   26147.39446110  .00031151  00000+0  48229-3 0  9999
2 56232  49.9919  93.2920 0005567 103.2341 256.9247 15.53706126176772
METEOR-M2 3             
1 57166U 23091A   26147.51160515  .00000016  00000+0  25675-4 0  9999
2 57166  98.6105 202.9114 0003171 216.2714 143.8251 14.24044741151574
TIANMU-1 07             
1 57399U 23101A   26147.55967469  .00007406  00000+0  26129-3 0  9990
2 57399  97.2610 198.7044 0002529 166.5386 193.5923 15.29529081158497
TIANMU-1 08             
1 57400U 23101B   26147.46095359  .00008076  00000+0  28459-3 0  9995
2 57400  97.2598 198.3816 0004124 169.0406 191.0925 15.29535456158478
TIANMU-1 09             
1 57401U 23101C   26147.51015598  .00007342  00000+0  25883-3 0  9992
2 57401  97.2557 197.8562 0002778 178.8338 181.2910 15.29556872158482
TIANMU-1 10             
1 57402U 23101D   26147.47739645  .00007569  00000+0  26695-3 0  9997
2 57402  97.2635 198.8535 0004351 185.9904 174.1285 15.29526816158478
FENGYUN 3F              
1 57490U 23111A   26147.46879201  .00000061  00000+0  49219-4 0  9995
2 57490  98.6840 217.8626 0001470 108.6684 251.4652 14.19934990145924
ARKTIKA-M 2             
1 58584U 23198A   26144.33347125  .00000154  00000+0  00000+0 0  9996
2 58584  63.2201 157.0242 6895752 267.5045  18.7884  2.00593321 17849
TIANMU-1 11             
1 58645U 23205A   26147.54100591  .00006678  00000+0  25630-3 0  9990
2 58645  97.3457 169.4250 0010799  80.8739 279.3721 15.26745798134376
TIANMU-1 12             
1 58646U 23205B   26147.51084214  .00006647  00000+0  25556-3 0  9994
2 58646  97.3445 169.1553 0008876  68.3191 291.8992 15.26702921134351
TIANMU-1 13             
1 58647U 23205C   26147.54106334  .00006827  00000+0  26361-3 0  9991
2 58647  97.3473 169.4545 0008320  51.4490 308.7493 15.26558666134355
